[{"OBJECT_NAME":"IRIDIUM 151","OBJECT_ID":"2017-083E","EPOCH":"2024-10-29T06:21:34.291008","MEAN_MOTION":14.34211926,"ECCENTRICITY":0.0001971,"INCLINATION":86.4025,"RA_OF_ASC_NODE":211.0698,"ARG_OF_PERICENTER":79.9485,"MEAN_ANOMALY":280.1933,"EPHEMERIS_TYPE":0,"CLASSIFICATION_TYPE":"U","NORAD_CAT_ID":43074,"ELEMENT_SET_NO":999,"REV_AT_EPOCH":35872,"BSTAR":0.00060225,"MEAN_MOTION_DOT":1.707e-5,"MEAN_MOTION_DDOT":0},{"OBJECT_NAME":"IRIDIUM 134","OBJECT_ID":"2017-083F","EPOCH":"2024-10-30T03:21:57.073824","MEAN_MOTION":14.3423436,"ECCENTRICITY":0.0002241,"INCLINATION":86.4027,"RA_OF_ASC_NODE":210.7045,"ARG_OF_PERICENTER":80.107,"MEAN_ANOMALY":280.0379,"EPHEMERIS_TYPE":0,"CLASSIFICATION_TYPE":"U","NORAD_CAT_ID":43075,"ELEMENT_SET_NO":999,"REV_AT_EPOCH":35881,"BSTAR":0.0003754,"MEAN_MOTION_DOT":1.072e-5,"MEAN_MOTION_DDOT":0},{"OBJECT_NAME":"IRIDIUM 137","OBJECT_ID":"2017-083G","EPOCH":"2024-10-29T15:56:57.556320","MEAN_MOTION":14.34228293,"ECCENTRICITY":0.0001961,"INCLINATION":86.4027,"RA_OF_ASC_NODE":210.9832,"ARG_OF_PERICENTER":66.2514,"MEAN_ANOMALY":293.8887,"EPHEMERIS_TYPE":0,"CLASSIFICATION_TYPE":"U","NORAD_CAT_ID":43076,"ELEMENT_SET_NO":999,"REV_AT_EPOCH":35881,"BSTAR":0.00042199,"MEAN_MOTION_DOT":1.202e-5,"MEAN_MOTION_DDOT":0},{"OBJECT_NAME":"IRIDIUM 141","OBJECT_ID":"2017-083H","EPOCH":"2024-10-30T03:31:06.379968","MEAN_MOTION":14.34225206,"ECCENTRICITY":0.0002043,"INCLINATION":86.4023,"RA_OF_ASC_NODE":210.6471,"ARG_OF_PERICENTER":85.1622,"MEAN_ANOMALY":274.9807,"EPHEMERIS_TYPE":0,"CLASSIFICATION_TYPE":"U","NORAD_CAT_ID":43077,"ELEMENT_SET_NO":999,"REV_AT_EPOCH":35888,"BSTAR":0.00036135,"MEAN_MOTION_DOT":1.032e-5,"MEAN_MOTION_DDOT":0},{"OBJECT_NAME":"IRIDIUM 153","OBJECT_ID":"2017-083J","EPOCH":"2024-10-29T16:19:26.947200","MEAN_MOTION":14.34222378,"ECCENTRICITY":0.0001944,"INCLINATION":86.4029,"RA_OF_ASC_NODE":179.373,"ARG_OF_PERICENTER":102.9639,"MEAN_ANOMALY":257.1774,"EPHEMERIS_TYPE":0,"CLASSIFICATION_TYPE":"U","NORAD_CAT_ID":43078,"ELEMENT_SET_NO":999,"REV_AT_EPOCH":35992,"BSTAR":0.00028886,"MEAN_MOTION_DOT":8.29e-6,"MEAN_MOTION_DDOT":0},{"OBJECT_NAME":"IRIDIUM 131","OBJECT_ID":"2017-083K","EPOCH":"2024-10-29T23:51:54.745632","MEAN_MOTION":14.34221905,"ECCENTRICITY":0.0001906,"INCLINATION":86.4026,"RA_OF_ASC_NODE":210.8566,"ARG_OF_PERICENTER":82.7099,"MEAN_ANOMALY":277.4313,"EPHEMERIS_TYPE":0,"CLASSIFICATION_TYPE":"U","NORAD_CAT_ID":43079,"ELEMENT_SET_NO":999,"REV_AT_EPOCH":35879,"BSTAR":0.00033239,"MEAN_MOTION_DOT":9.51e-6,"MEAN_MOTION_DDOT":0},{"OBJECT_NAME":"IRIDIUM 144","OBJECT_ID":"2018-030A","EPOCH":"2024-10-30T02:31:22.780992","MEAN_MOTION":14.34226272,"ECCENTRICITY":0.0002139,"INCLINATION":86.4025,"RA_OF_ASC_NODE":179.1392,"ARG_OF_PERICENTER":81.3697,"MEAN_ANOMALY":278.7741,"EPHEMERIS_TYPE":0,"CLASSIFICATION_TYPE":"U","NORAD_CAT_ID":43249,"ELEMENT_SET_NO":999,"REV_AT_EPOCH":34486,"BSTAR":0.00040818,"MEAN_MOTION_DOT":1.163e-5,"MEAN_MOTION_DDOT":0},{"OBJECT_NAME":"IRIDIUM 149","OBJECT_ID":"2018-030B","EPOCH":"2024-10-29T21:39:07.249536","MEAN_MOTION":14.34221198,"ECCENTRICITY":0.0001979,"INCLINATION":86.4023,"RA_OF_ASC_NODE":179.1976,"ARG_OF_PERICENTER":78.2953,"MEAN_ANOMALY":281.8464,"EPHEMERIS_TYPE":0,"CLASSIFICATION_TYPE":"U","NORAD_CAT_ID":43250,"ELEMENT_SET_NO":999,"REV_AT_EPOCH":34483,"BSTAR":0.00038999,"MEAN_MOTION_DOT":1.112e-5,"MEAN_MOTION_DDOT":0},{"OBJECT_NAME":"IRIDIUM 157","OBJECT_ID":"2018-030C","EPOCH":"2024-10-29T22:06:30.542976","MEAN_MOTION":14.34223901,"ECCENTRICITY":0.000181,"INCLINATION":86.4027,"RA_OF_ASC_NODE":179.2294,"ARG_OF_PERICENTER":82.5817,"MEAN_ANOMALY":277.5584,"EPHEMERIS_TYPE":0,"CLASSIFICATION_TYPE":"U","NORAD_CAT_ID":43251,"ELEMENT_SET_NO":999,"REV_AT_EPOCH":34481,"BSTAR":3.2483e-5,"MEAN_MOTION_DOT":1.11e-6,"MEAN_MOTION_DDOT":0},{"OBJECT_NAME":"IRIDIUM 140","OBJECT_ID":"2018-030D","EPOCH":"2024-10-29T14:11:35.172384","MEAN_MOTION":14.3421978,"ECCENTRICITY":0.0002163,"INCLINATION":86.4025,"RA_OF_ASC_NODE":179.3809,"ARG_OF_PERICENTER":84.6351,"MEAN_ANOMALY":275.5092,"EPHEMERIS_TYPE":0,"CLASSIFICATION_TYPE":"U","NORAD_CAT_ID":43252,"ELEMENT_SET_NO":999,"REV_AT_EPOCH":34482,"BSTAR":0.00035505,"MEAN_MOTION_DOT":1.014e-5,"MEAN_MOTION_DDOT":0},{"OBJECT_NAME":"IRIDIUM 145","OBJECT_ID":"2018-030E","EPOCH":"2024-10-29T17:14:15.242208","MEAN_MOTION":14.34219631,"ECCENTRICITY":0.0002437,"INCLINATION":86.4024,"RA_OF_ASC_NODE":179.3015,"ARG_OF_PERICENTER":75.185,"MEAN_ANOMALY":284.9615,"EPHEMERIS_TYPE":0,"CLASSIFICATION_TYPE":"U","NORAD_CAT_ID":43253,"ELEMENT_SET_NO":999,"REV_AT_EPOCH":34477,"BSTAR":8.3317e-5,"MEAN_MOTION_DOT":2.53e-6,"MEAN_MOTION_DDOT":0},{"OBJECT_NAME":"IRIDIUM 146","OBJECT_ID":"2018-030F","EPOCH":"2024-10-29T21:48:15.238944","MEAN_MOTION":14.34217298,"ECCENTRICITY":0.0002196,"INCLINATION":86.4025,"RA_OF_ASC_NODE":179.237,"ARG_OF_PERICENTER":75.1057,"MEAN_ANOMALY":285.0381,"EPHEMERIS_TYPE":0,"CLASSIFICATION_TYPE":"U","NORAD_CAT_ID":43254,"ELEMENT_SET_NO":999,"REV_AT_EPOCH":34481,"BSTAR":8.4663e-5,"MEAN_MOTION_DOT":2.57e-6,"MEAN_MOTION_DDOT":0},{"OBJECT_NAME":"IRIDIUM 148","OBJECT_ID":"2018-030G","EPOCH":"2024-10-30T02:03:59.446080","MEAN_MOTION":14.34217861,"ECCENTRICITY":0.0001977,"INCLINATION":86.4029,"RA_OF_ASC_NODE":179.1966,"ARG_OF_PERICENTER":76.1058,"MEAN_ANOMALY":284.0358,"EPHEMERIS_TYPE":0,"CLASSIFICATION_TYPE":"U","NORAD_CAT_ID":43255,"ELEMENT_SET_NO":999,"REV_AT_EPOCH":34488,"BSTAR":3.0803e-6,"MEAN_MOTION_DOT":2.8e-7,"MEAN_MOTION_DDOT":0},{"OBJECT_NAME":"IRIDIUM 142","OBJECT_ID":"2018-030H","EPOCH":"2024-10-29T21:57:23.172192","MEAN_MOTION":14.34219321,"ECCENTRICITY":0.0002157,"INCLINATION":86.4021,"RA_OF_ASC_NODE":179.1789,"ARG_OF_PERICENTER":70.0245,"MEAN_ANOMALY":290.1183,"EPHEMERIS_TYPE":0,"CLASSIFICATION_TYPE":"U","NORAD_CAT_ID":43256,"ELEMENT_SET_NO":999,"REV_AT_EPOCH":34481,"BSTAR":0.0002828,"MEAN_MOTION_DOT":8.12e-6,"MEAN_MOTION_DDOT":0},{"OBJECT_NAME":"IRIDIUM 150","OBJECT_ID":"2018-030J","EPOCH":"2024-10-29T22:52:10.832160","MEAN_MOTION":14.34224746,"ECCENTRICITY":0.0002293,"INCLINATION":86.4027,"RA_OF_ASC_NODE":179.2595,"ARG_OF_PERICENTER":77.2805,"MEAN_ANOMALY":282.8647,"EPHEMERIS_TYPE":0,"CLASSIFICATION_TYPE":"U","NORAD_CAT_ID":43257,"ELEMENT_SET_NO":999,"REV_AT_EPOCH":34486,"BSTAR":0.00040312,"MEAN_MOTION_DOT":1.149e-5,"MEAN_MOTION_DDOT":0},{"OBJECT_NAME":"IRIDIUM 143","OBJECT_ID":"2018-030K","EPOCH":"2024-10-29T09:01:02.932032","MEAN_MOTION":14.34223286,"ECCENTRICITY":0.0002444,"INCLINATION":86.4029,"RA_OF_ASC_NODE":179.5696,"ARG_OF_PERICENTER":73.6541,"MEAN_ANOMALY":286.4924,"EPHEMERIS_TYPE":0,"CLASSIFICATION_TYPE":"U","NORAD_CAT_ID":43258,"ELEMENT_SET_NO":999,"REV_AT_EPOCH":34469,"BSTAR":0.00029169,"MEAN_MOTION_DOT":8.37e-6,"MEAN_MOTION_DDOT":0},{"OBJECT_NAME":"IRIDIUM 161","OBJECT_ID":"2018-047C","EPOCH":"2024-10-30T00:47:35.300544","MEAN_MOTION":14.4329588,"ECCENTRICITY":0.0002187,"INCLINATION":86.4495,"RA_OF_ASC_NODE":337.2018,"ARG_OF_PERICENTER":96.1762,"MEAN_ANOMALY":263.9688,"EPHEMERIS_TYPE":0,"CLASSIFICATION_TYPE":"U","NORAD_CAT_ID":43478,"ELEMENT_SET_NO":999,"REV_AT_EPOCH":33929,"BSTAR":0.00043468,"MEAN_MOTION_DOT":1.483e-5,"MEAN_MOTION_DDOT":0}]